      2.10          N: GNSS NAV DATA                        RINEX VERSION / TYPE
fic2rin                                 08/10/2023 00:17:56 PGM / RUN BY / DATE
                                                            END OF HEADER
14 23  8  9 20  0  0.0  .148994382471D-03  .117097442853D-10  .000000000000D+00
     .184000000000D+03  .671875000000D+02  .448875840338D-08 -.210258399213D+01
     .352971255779D-05  .347914372105D-02  .894628465176D-05  .515368109322D+04
     .331200000000D+06 -.689178705215D-07 -.106613430061D+01  .316649675369D-07
     .947855564275D+00  .200156250000D+03 -.295778118234D+01 -.792961601462D-08
    -.187864968187D-09  .100000000000D+01  .227400000000D+04  .000000000000D+00
     .240000000000D+01  .000000000000D+00 -.791624188423D-08  .440000000000D+03
     .324000000000D+06  .400000000000D+01
3  23  8  9 19 59 44.0 -.194782391191D-03  .178488335223D-10  .000000000000D+00
     .700000000000D+01 -.782812500000D+02  .409445626482D-08 -.186451944758D+01
    -.397674739361D-05  .510527705774D-02  .816583633423D-05  .515362435150D+04
     .331184000000D+06  .782310962677D-07  .204677181242D+01  .558793544769D-07
     .979972897885D+00  .230750000000D+03  .108569221334D+01 -.770746390395D-08
     .360729311538D-09  .100000000000D+01  .227400000000D+04  .000000000000D+00
     .240000000000D+01  .000000000000D+00  .186264514923D-08  .700000000000D+01
     .329970000000D+06  .400000000000D+01
3  23  8  9 21 59 44.0 -.194653868675D-03  .178488335223D-10  .000000000000D+00
     .150000000000D+02 -.740000000000D+02  .409838499990D-08 -.814566390211D+00
    -.361166894436D-05  .510493339971D-02  .891648232937D-05  .515362180519D+04
     .338384000000D+06 -.186264514923D-08  .204671616448D+01  .108033418655D-06
     .979975060078D+00  .222062500000D+03  .108594784364D+01 -.779353891789D-08
     .346443002170D-09  .100000000000D+01  .227400000000D+04  .000000000000D+00
     .240000000000D+01  .000000000000D+00  .186264514923D-08  .150000000000D+02
     .331200000000D+06  .400000000000D+01
2  23  8  9 22  0  0.0 -.567200127989D-03  .409272615798D-11  .000000000000D+00
     .460000000000D+02 -.530625000000D+02  .422946188835D-08  .306264781989D+01
    -.289082527161D-05  .159609868424D-01  .350736081600D-05  .515354994583D+04
     .338400000000D+06  .242143869400D-06  .916172505211D+00  .109896063805D-06
     .967527681160D+00  .311500000000D+03 -.135839634952D+01 -.792533012181D-08
    -.160720980388D-10  .100000000000D+01  .227400000000D+04  .000000000000D+00
     .240000000000D+01  .000000000000D+00 -.176951289177D-07  .460000000000D+02
     .331200000000D+06  .400000000000D+01
1  23  8  9 22  0  0.0  .169219914824D-03 -.147792889038D-11  .000000000000D+00
     .350000000000D+02 -.546562500000D+02  .382408786004D-08  .378918530906D+00
    -.297464430332D-05  .129067176022D-01  .468082726002D-05  .515364020920D+04
     .338400000000D+06 -.180676579475D-06  .101642204750D+01  .176951289177D-06
     .990129203724D+00  .307406250000D+03  .990794177526D+00 -.807712215884D-08
    -.625026034843D-10  .100000000000D+01  .227400000000D+04  .000000000000D+00
     .240000000000D+01  .630000000000D+02  .465661287308D-08  .350000000000D+02
     .331200000000D+06  .400000000000D+01
8  23  8  9 22  0  0.0 -.136379618198D-03 -.181898940355D-11  .000000000000D+00
     .170000000000D+02  .719687500000D+02  .445268547222D-08  .255369681780D+01
     .366382300854D-05  .852008222137D-02  .409409403801D-05  .515373792648D+04
     .338400000000D+06 -.128522515297D-06 -.774493174121D-01 -.502914190292D-07
     .957851155397D+00  .299968750000D+03  .271277516026D+00 -.819105547605D-08
     .146434671020D-10  .100000000000D+01  .227400000000D+04  .000000000000D+00
     .240000000000D+01  .000000000000D+00  .512227416039D-08  .170000000000D+02
     .331200000000D+06  .400000000000D+01
5  23  8  9 22  0  0.0 -.138186849654D-03 -.147792889038D-11  .000000000000D+00
     .830000000000D+02 -.785625000000D+02  .430625080120D-08  .292851821988D+01
    -.422447919846D-05  .608706392813D-02  .790506601334D-05  .515371480560D+04
     .338400000000D+06  .521540641785D-07  .199916109233D+01 -.875443220139D-07
     .966973507311D+00  .233656250000D+03  .120224129774D+01 -.777603818892D-08
     .238938524177D-09  .100000000000D+01  .227400000000D+04  .000000000000D+00
     .240000000000D+01  .000000000000D+00 -.111758708954D-07  .830000000000D+02
     .331200000000D+06  .400000000000D+01
12 23  8  9 22  0  0.0 -.410986598581D-03 -.454747350886D-11  .000000000000D+00
     .480000000000D+02  .632500000000D+02  .438053960991D-08 -.958516525649D+00
     .329688191414D-05  .865496415645D-02  .868178904057D-05  .515356750107D+04
     .338400000000D+06 -.800937414169D-07 -.102635540170D+01  .158324837685D-06
     .964530520431D+00  .214312500000D+03  .138884745455D+01 -.802247702551D-08
    -.315370279295D-09  .100000000000D+01  .227400000000D+04  .000000000000D+00
     .240000000000D+01  .000000000000D+00 -.125728547573D-07  .480000000000D+02
     .331200000000D+06  .400000000000D+01
10 23  8  9 22  0  0.0 -.486262142658D-04 -.159161572810D-11  .000000000000D+00
     .350000000000D+02 -.633125000000D+02  .399802367659D-08 -.170456254381D+01
    -.341795384884D-05  .865381432232D-02  .820122659206D-05  .515368832016D+04
     .338400000000D+06  .968575477600D-07  .204408914251D+01 -.108033418655D-06
     .979694658181D+00  .226687500000D+03 -.244291341393D+01 -.764031824992D-08
     .367872466222D-09  .100000000000D+01  .227400000000D+04  .000000000000D+00
     .340000000000D+01  .000000000000D+00  .232830643654D-08  .350000000000D+02
     .331200000000D+06  .400000000000D+01
7  23  8  9 22  0  0.0  .100400764495D-03 -.109139364213D-10  .000000000000D+00
     .710000000000D+02  .762500000000D+01  .514485716109D-08 -.294092830901D+00
     .443309545517D-06  .175291817868D-01  .745989382267D-05  .515372562027D+04
     .338400000000D+06 -.633299350739D-07 -.214165045286D+01  .163912773132D-06
     .950187070945D+00  .229625000000D+03 -.217763285407D+01 -.847856745208D-08
    -.367872466222D-09  .100000000000D+01  .227400000000D+04  .000000000000D+00
     .240000000000D+01  .000000000000D+00 -.111758708954D-07  .710000000000D+02
     .331200000000D+06  .400000000000D+01
6  23  8  9 22  0  0.0  .568385235965D-03 -.488853402203D-11  .000000000000D+00
     .830000000000D+02 -.533125000000D+02  .377408577725D-08  .588899437088D+00
    -.263936817646D-05  .269755523186D-02  .380165874958D-05  .515372184372D+04
     .338400000000D+06  .391155481339D-07  .100808489346D+01 -.484287738800D-07
     .989318491098D+00  .318093750000D+03 -.777339409981D+00 -.798104672835D-08
     .403588239642D-10  .100000000000D+01  .227400000000D+04  .000000000000D+00
     .340000000000D+01  .000000000000D+00  .372529029846D-08  .830000000000D+02
     .331200000000D+06  .400000000000D+01
4  23  8  9 22  0  0.0  .120807904750D-03  .113686837722D-10  .000000000000D+00
     .147000000000D+03 -.178750000000D+02  .481591488790D-08  .216662942358D+01
    -.836327672005D-06  .247495586518D-02  .749900937080D-05  .515363193321D+04
     .338400000000D+06 -.465661287308D-07  .312716804287D+01  .106170773506D-06
     .963558671766D+00  .237625000000D+03 -.301600480402D+01 -.799711882638D-08
     .317156067966D-09  .100000000000D+01  .227400000000D+04  .000000000000D+00
     .240000000000D+01  .000000000000D+00 -.465661287308D-08  .915000000000D+03
     .331200000000D+06  .400000000000D+01
32 23  8  9 22  0  0.0 -.537617597729D-03 -.704858393874D-11  .000000000000D+00
     .590000000000D+02 -.158437500000D+02  .477019869792D-08 -.310086988871D+01
    -.828877091408D-06  .697374867741D-02  .746175646782D-05  .515377223969D+04
     .338400000000D+06  .372529029846D-08  .308338956250D+01 -.191852450371D-06
     .960489156572D+00  .233875000000D+03 -.220484420998D+01 -.790747223510D-08
     .234295473633D-09  .100000000000D+01  .227400000000D+04  .000000000000D+00
     .240000000000D+01  .000000000000D+00  .465661287308D-09  .590000000000D+02
     .331200000000D+06  .400000000000D+01
24 23  8  9 22  0  0.0 -.284806825221D-03 -.117097442853D-10  .000000000000D+00
     .410000000000D+02 -.281250000000D+00  .557451791533D-08  .703926941863D+00
     .255182385445D-06  .141913580010D-01  .726617872715D-05  .515363614655D+04
     .338400000000D+06 -.104308128357D-06 -.223363285637D+01  .126659870148D-06
     .933857176203D+00  .225875000000D+03  .908158678008D+00 -.865000316449D-08
    -.380730144653D-09  .100000000000D+01  .227400000000D+04  .000000000000D+00
     .240000000000D+01  .000000000000D+00  .279396772385D-08  .410000000000D+02
     .331200000000D+06  .400000000000D+01
19 23  8  9 22  0  0.0  .355484895408D-03  .511590769747D-11  .000000000000D+00
     .240000000000D+02  .658437500000D+02  .408124142866D-08 -.162711810816D+01
     .352412462234D-05  .948389584664D-02  .465475022793D-05  .515364157486D+04
     .338400000000D+06 -.204890966415D-06  .571556066347D-01  .000000000000D+00
     .972589406973D+00  .298968750000D+03  .238166200240D+01 -.811605235187D-08
     .165364030933D-09  .100000000000D+01  .227400000000D+04  .000000000000D+00
     .240000000000D+01  .000000000000D+00 -.153668224812D-07  .240000000000D+02
     .331200000000D+06  .400000000000D+01
17 23  8  9 22  0  0.0  .722465571016D-03  .568434188608D-12  .000000000000D+00
     .180000000000D+02  .726875000000D+02  .394230707006D-08  .252271796069D+01
     .379607081413D-05  .136381178163D-01  .417605042458D-05  .515356523323D+04
     .338400000000D+06  .106170773506D-06  .126939903328D-01  .558793544769D-08
     .973497371467D+00  .301000000000D+03 -.140642671790D+01 -.778496713227D-08
     .928610108910D-11  .100000000000D+01  .227400000000D+04  .000000000000D+00
     .240000000000D+01  .000000000000D+00 -.111758708954D-07  .180000000000D+02
     .331200000000D+06  .400000000000D+01
